NORAD_CAT_ID,OBJECT_NAME,OBJECT_TYPE,EPOCH,MEAN_MOTION,ECCENTRICITY,INCLINATION,RA_OF_ASC_NODE,ARG_OF_PERICENTER,MEAN_ANOMALY,BSTAR,MEAN_MOTION_DOT,MEAN_MOTION_DDOT,TLE_LINE0,TLE_LINE1,TLE_LINE2,SEMIMAJOR_AXIS,PERIOD,APOGEE,PERIGEE,DECAYED
51137.0,STARLINK-3180,PAYLOAD,2023-02-24 18:59:44,15.0883849,0.0001046,53.2131,237.1598,91.8426,268.2686,6.1995e-05,6.99e-06,0.0,0 STARLINK-3180,1 51137U 22005AK  23055.79148632  .00000699  00000-0  61995-4 0  9999,2 51137  53.2131 237.1598 0001046  91.8426 268.2686 15.08838490 61337,6917.885,95.438,540.474,539.026,0.0
51137.0,STARLINK-3180,PAYLOAD,2023-02-25 12:28:59,15.08832589,0.0001063,53.2132,233.8886,93.5079,266.6035,-8.0183e-05,-1.563e-05,0.0,0 STARLINK-3180,1 51137U 22005AK  23056.52012940 -.00001563  00000-0 -80183-4 0  9996,2 51137  53.2132 233.8886 0001063  93.5079 266.6035 15.08832589 61448,6917.903,95.438,540.503,539.033,0.0
51137.0,STARLINK-3180,PAYLOAD,2023-02-25 18:50:31,15.08838818,0.0001048,53.2131,232.6997,93.0697,267.0415,1.9311e-05,2e-07,0.0,0 STARLINK-3180,1 51137U 22005AK  23056.78508844  .00000020  00000-0  19311-4 0  9997,2 51137  53.2131 232.6997 0001048  93.0697 267.0415 15.08838818 62596,6917.884,95.438,540.474,539.024,0.0
51137.0,STARLINK-3180,PAYLOAD,2023-02-26 12:19:46,15.08845896,0.0001075,53.2135,229.4282,91.7202,268.3913,0.00031668,4.757e-05,0.0,0 STARLINK-3180,1 51137U 22005AK  23057.51372833  .00004757  00000-0  31668-3 0  9995,2 51137  53.2135 229.4282 0001075  91.7202 268.3913 15.08845896 61598,6917.862,95.437,540.471,538.984,0.0
51137.0,STARLINK-3180,PAYLOAD,2023-02-26 20:16:41,15.08856469,0.0001067,53.2134,227.9413,90.7187,269.3928,0.00047334,7.257e-05,0.0,0 STARLINK-3180,1 51137U 22005AK  23057.84492379  .00007257  00000-0  47334-3 0  9994,2 51137  53.2134 227.9413 0001067  90.7187 269.3928 15.08856469 61649,6917.83,95.437,540.433,538.957,0.0
51137.0,STARLINK-3180,PAYLOAD,2023-02-26 21:52:04,15.08858656,0.0001062,53.2134,227.6438,89.6873,270.4241,0.0005541,8.546e-05,0.0,0 STARLINK-3180,1 51137U 22005AK  23057.91116321  .00008546  00000-0  55410-3 0  9998,2 51137  53.2134 227.6438 0001062  89.6873 270.4241 15.08858656 62762,6917.823,95.436,540.423,538.954,0.0
51137.0,STARLINK-3180,PAYLOAD,2023-02-27 10:35:09,15.08842565,0.0001224,53.2125,225.2598,110.8303,249.2821,0.00014969,2.095e-05,0.0,0 STARLINK-3180,1 51137U 22005AK  23058.44108659  .00002095  00000-0  14969-3 0  9999,2 51137  53.2125 225.2598 0001224 110.8303 249.2821 15.08842565 62847,6917.873,95.437,540.584,538.891,0.0
51137.0,STARLINK-3180,PAYLOAD,2023-02-27 13:45:55,15.08852271,0.0001219,53.2132,224.665,124.9802,235.1304,0.00035361,5.346e-05,0.0,0 STARLINK-3180,1 51137U 22005AK  23058.57356266  .00005346  00000-0  35361-3 0  9993,2 51137  53.2132 224.6650 0001219 124.9802 235.1304 15.08852271 62868,6917.843,95.437,540.551,538.865,0.0
51137.0,STARLINK-3180,PAYLOAD,2023-02-27 15:21:18,15.0884854,0.00013,53.2133,224.3672,126.9529,233.1582,0.00023292,3.422e-05,0.0,0 STARLINK-3180,1 51137U 22005AK  23058.63980283  .00003422  00000-0  23292-3 0  9995,2 51137  53.2133 224.3672 0001300 126.9529 233.1582 15.08848540 61767,6917.854,95.437,540.619,538.82,0.0
51137.0,STARLINK-3180,PAYLOAD,2023-02-28 12:01:20,15.088348,0.0001158,53.2133,220.5064,80.8894,279.2229,-7.8699e-05,-1.54e-05,0.0,0 STARLINK-3180,1 51137U 22005AK  23059.50093078 -.00001540  00000-0 -78699-4 0  9992,2 51137  53.2133 220.5064 0001158  80.8894 279.2229 15.08834800 61891,6917.896,95.438,540.562,538.96,0.0
51137.0,STARLINK-3180,PAYLOAD,2023-02-28 15:12:06,15.08839659,0.0001121,53.2144,219.9116,84.5649,275.5471,8.2861e-06,-1.56e-06,0.0,0 STARLINK-3180,1 51137U 22005AK  23059.63341107 -.00000156  00000-0  82861-5 0  9993,2 51137  53.2144 219.9116 0001121  84.5649 275.5471 15.08839659 63024,6917.881,95.438,540.522,538.971,0.0
51137.0,STARLINK-3180,PAYLOAD,2023-02-28 18:22:52,15.08843266,0.0001089,53.2145,219.3164,91.948,268.1636,1.1306e-05,-1.08e-06,0.0,0 STARLINK-3180,1 51137U 22005AK  23059.76588765 -.00000108  00000-0  11306-4 0  9992,2 51137  53.2145 219.3164 0001089  91.9480 268.1636 15.08843266 61938,6917.87,95.437,540.489,538.982,0.0
51137.0,STARLINK-3180,PAYLOAD,2023-03-01 16:38:17,15.08829565,0.000119,53.2146,215.1541,101.9647,258.1478,-8.9331e-05,-1.709e-05,0.0,0 STARLINK-3180,1 51137U 22005AK  23060.69326185 -.00001709  00000-0 -89331-4 0  9994,2 51137  53.2146 215.1541 0001190 101.9647 258.1478 15.08829565 63180,6917.912,95.438,540.601,538.954,0.0
51137.0,STARLINK-3180,PAYLOAD,2023-03-01 21:24:26,15.08836749,0.0001387,53.2145,214.2625,85.2837,274.8313,-1.0962e-05,-4.62e-06,0.0,0 STARLINK-3180,1 51137U 22005AK  23060.89197717 -.00000462  00000-0 -10962-4 0  9992,2 51137  53.2145 214.2625 0001387  85.2837 274.8313 15.08836749 63214,6917.89,95.438,540.715,538.796,0.0
51137.0,STARLINK-3180,PAYLOAD,2023-03-02 19:39:49,15.08844881,0.0001282,53.2147,210.0968,92.0182,268.0956,0.00017145,2.442e-05,0.0,0 STARLINK-3180,1 51137U 22005AK  23061.81932860  .00002442  00000-0  17145-3 0  9998,2 51137  53.2147 210.0968 0001282  92.0182 268.0956 15.08844881 63352,6917.865,95.437,540.617,538.844,0.0
51137.0,STARLINK-3180,PAYLOAD,2023-03-03 09:58:19,15.08833363,0.0001909,53.2133,207.4213,87.6065,272.5146,8.5169e-05,1.067e-05,0.0,0 STARLINK-3180,1 51137U 22005AK  23062.41550289  .00001067  00000-0  85169-4 0  9990,2 51137  53.2133 207.4213 0001909  87.6065 272.5146 15.08833363 63440,6917.901,95.438,541.086,538.445,0.0
51137.0,STARLINK-3180,PAYLOAD,2023-03-03 16:19:52,15.08829025,0.000194,53.2142,206.2307,91.8461,268.2754,3.874e-05,3.28e-06,0.0,0 STARLINK-3180,1 51137U 22005AK  23062.68046793  .00000328  00000-0  38740-4 0  9991,2 51137  53.2142 206.2307 0001940  91.8461 268.2754 15.08829025 62371,6917.914,95.438,541.121,538.437,0.0
51137.0,STARLINK-3180,PAYLOAD,2023-03-04 01:52:11,15.08829924,0.0001831,53.2158,204.4478,87.0082,273.1119,-1.5167e-05,-5.29e-06,0.0,0 STARLINK-3180,1 51137U 22005AK  23063.07791098 -.00000529  00000-0 -15167-4 0  9993,2 51137  53.2158 204.4478 0001831  87.0082 273.1119 15.08829924 63540,6917.911,95.438,541.043,538.51,0.0
51137.0,STARLINK-3180,PAYLOAD,2023-03-04 09:49:05,15.08844767,0.000111,53.2162,202.9616,82.9018,277.21,0.00014363,1.999e-05,0.0,0 STARLINK-3180,1 51137U 22005AK  23063.40909652  .00001999  00000-0  14363-3 0  9993,2 51137  53.2162 202.9616 0001110  82.9018 277.2100 15.08844767 63597,6917.866,95.437,540.499,538.963,0.0
51137.0,STARLINK-3180,PAYLOAD,2023-03-04 16:10:36,15.08871444,0.0001292,53.2151,201.7712,93.5745,266.5395,0.00020001,2.899e-05,0.0,0 STARLINK-3180,1 51137U 22005AK  23063.67403461  .00002899  00000-0  20001-3 0  9995,2 51137  53.2151 201.7712 0001292  93.5745 266.5395 15.08871444 63639,6917.784,95.436,540.543,538.756,0.0
51137.0,STARLINK-3180,PAYLOAD,2023-03-05 01:42:56,15.08851738,0.0001347,53.216,199.9892,93.3131,266.8015,5.2478e-06,-2.04e-06,0.0,0 STARLINK-3180,1 51137U 22005AK  23064.07148910 -.00000204  00000-0  52478-5 0  9999,2 51137  53.2160 199.9892 0001347  93.3131 266.8015 15.08851738 63696,6917.845,95.437,540.641,538.778,0.0
51137.0,STARLINK-3180,PAYLOAD,2023-03-06 01:33:44,15.08840885,0.0001117,53.2167,195.5292,83.855,276.2569,3.3817e-05,2.5e-06,0.0,0 STARLINK-3180,1 51137U 22005AK  23065.06509799  .00000250  00000-0  33817-4 0  9990,2 51137  53.2167 195.5292 0001117  83.8550 276.2569 15.08840885 63840,6917.878,95.437,540.515,538.97,0.0
51137.0,STARLINK-3180,PAYLOAD,2023-03-06 19:02:57,15.0885732,0.0001647,53.216,192.2563,107.5556,252.5616,-6.5637e-05,-1.333e-05,0.0,0 STARLINK-3180,1 51137U 22005AK  23065.79372483 -.00001333  00000-0 -65637-4 0  9998,2 51137  53.2160 192.2563 0001647 107.5556 252.5616 15.08857320 63950,6917.827,95.436,540.832,538.553,0.0
51137.0,STARLINK-3180,PAYLOAD,2023-03-07 01:24:33,15.08828455,0.000425,53.2149,191.0657,84.1545,275.9932,-0.00034393,-5.758e-05,0.0,0 STARLINK-3180,1 51137U 22005AK  23066.05871992 -.00005758  00000-0 -34393-3 0  9996,2 51137  53.2149 191.0657 0004250  84.1545 275.9932 15.08828455 63990,6917.916,95.438,542.721,536.841,0.0
51137.0,STARLINK-3180,PAYLOAD,2023-03-07 09:21:29,15.08812697,0.0001398,53.2152,189.5819,88.6056,271.5096,-0.00013826,-2.486e-05,0.0,0 STARLINK-3180,1 51137U 22005AK  23066.38992078 -.00002486  00000-0 -13826-3 0  9994,2 51137  53.2152 189.5819 0001398  88.6056 271.5096 15.08812697 62939,6917.964,95.439,540.796,538.862,0.0
51137.0,STARLINK-3180,PAYLOAD,2023-03-08 01:15:19,15.08834239,9.42e-05,53.2163,186.6076,82.9769,277.133,8.1114e-05,1.003e-05,0.0,0 STARLINK-3180,1 51137U 22005AK  23067.05230568  .00001003  00000-0  81114-4 0  9996,2 51137  53.2163 186.6076 0000942  82.9769 277.1330 15.08834239 64140,6917.898,95.438,540.415,539.111,0.0
51137.0,STARLINK-3180,PAYLOAD,2023-03-08 17:09:08,15.0886036,0.0001809,53.2159,183.6331,95.778,264.3419,0.00023338,3.43e-05,0.0,0 STARLINK-3180,1 51137U 22005AK  23067.71468527  .00003430  00000-0  23338-3 0  9996,2 51137  53.2159 183.6331 0001809  95.7780 264.3419 15.08860360 64245,6917.818,95.436,540.935,538.432,0.0
51137.0,STARLINK-3180,PAYLOAD,2023-03-09 01:06:05,15.08835441,0.0001358,53.2148,182.1475,90.9491,269.1657,0.00033416,5.034e-05,0.0,0 STARLINK-3180,1 51137U 22005AK  23068.04589623  .00005034  00000-0  33416-3 0  9994,2 51137  53.2148 182.1475 0001358  90.9491 269.1657 15.08835441 64295,6917.894,95.438,540.699,538.82,0.0
51137.0,STARLINK-3180,PAYLOAD,2023-03-09 12:13:47,15.08833379,0.0001493,53.214,180.0652,94.0651,266.0512,0.00029208,4.363e-05,0.0,0 STARLINK-3180,1 51137U 22005AK  23068.50958029  .00004363  00000-0  29208-3 0  9993,2 51137  53.2140 180.0652 0001493  94.0651 266.0512 15.08833379 64366,6917.901,95.438,540.798,538.733,0.0
51137.0,STARLINK-3180,PAYLOAD,2023-03-10 10:29:09,15.08885676,8e-05,53.2153,175.9018,82.3451,277.7632,-0.00053228,-8.759e-05,0.0,0 STARLINK-3180,1 51137U 22005AK  23069.43691917 -.00008759  00000-0 -53228-3 0  9990,2 51137  53.2153 175.9018 0000800  82.3451 277.7632 15.08885676 64503,6917.741,95.435,540.159,539.052,0.0
